IRIDIUM 150             
1 43257U 18030J   25040.79170657  .00000624  00000+0  21585-3 0  9991
2 43257  86.4010 136.3326 0002307  92.9642 267.1818 14.34217626359589
IRIDIUM 143             
1 43258U 18030K   25040.77267113  .00000213  00000+0  68891-4 0  9990
2 43258  86.4013 136.4136 0002595  92.2088 267.9405 14.34222306359513
IRIDIUM 161             
1 43478U 18047C   25040.78138104  .00000065  00000+0  13190-4 0  9997
2 43478  86.4485 294.2369 0001991  85.6680 274.4749 14.43278241354118
IRIDIUM 152             
1 43479U 18047D   25040.74539591  .00000235  00000+0  76948-4 0  9998
2 43479  86.3958 294.1119 0002079  87.2471 272.8962 14.34217594351906
IRIDIUM 147             
1 43480U 18047E   25040.75173868  .00000446  00000+0  15203-3 0  9992
2 43480  86.3961 294.1057 0001823  82.8103 277.3300 14.34218887351904
IRIDIUM 110             
1 43481U 18047F   25040.96738062  .00000518  00000+0  17775-3 0  9995
2 43481  86.3961 294.0946 0001815  96.1136 264.0266 14.34222216351923
IRIDIUM 162             
1 43482U 18047G   25040.77511447  .00000714  00000+0  20631-3 0  9994
2 43482  86.4484 294.1367 0002081  91.7170 268.4270 14.43272331354107
IRIDIUM 160             
1 43569U 18061A   25040.84345398  .00000184  00000+0  58638-4 0  9994
2 43569  86.3928 262.4975 0001853  90.6186 269.5222 14.34218697342807
